{
  "norad_id": 60053,
  "name": "STARLINK-31793",
  "history": [
    {
      "epoch": "2026-03-28T21:37:47.739936Z",
      "apogee_km": 476.14987643386394,
      "perigee_km": 474.3083769556224,
      "latitude_deg": 5.896927548188052e-05,
      "longitude_deg": -161.69691796355679,
      "height_km": 476.3711163460391,
      "semi_major_axis_km": 6853.366126694743,
      "eccentricity": 0.00013435,
      "inclination_deg": 53.1619,
      "raan_deg": 349.067,
      "arg_perigee_deg": 105.3516,
      "mean_anomaly_deg": 254.7634,
      "mean_motion_rev_day": 15.30195292
    },
    {
      "epoch": "2026-03-29T02:19:57.747360Z",
      "apogee_km": 476.042210508941,
      "perigee_km": 474.4494843352004,
      "latitude_deg": -5.953344468124779e-05,
      "longitude_deg": 126.65855985760894,
      "height_km": 476.3846429974806,
      "semi_major_axis_km": 6853.382847422071,
      "eccentricity": 0.0001162,
      "inclination_deg": 53.1612,
      "raan_deg": 348.1574,
      "arg_perigee_deg": 107.5679,
      "mean_anomaly_deg": 252.5448,
      "mean_motion_rev_day": 15.30189692
    },
    {
      "epoch": "2026-03-29T21:08:36.435264Z",
      "apogee_km": 476.1143041027517,
      "perigee_km": 474.46399908544845,
      "latitude_deg": 1.3695762393700756e-05,
      "longitude_deg": -159.91381470207318,
      "height_km": 476.4272498816433,
      "semi_major_axis_km": 6853.4261515941,
      "eccentricity": 0.0001204,
      "inclination_deg": 53.1626,
      "raan_deg": 344.5187,
      "arg_perigee_deg": 106.8801,
      "mean_anomaly_deg": 253.2332,
      "mean_motion_rev_day": 15.30175189
    },
    {
      "epoch": "2026-03-30T09:41:01.935168Z",
      "apogee_km": 475.8902241165979,
      "perigee_km": 474.6021992757924,
      "latitude_deg": -4.1415687436319914e-05,
      "longitude_deg": 9.038078556947267,
      "height_km": 476.2948117951232,
      "semi_major_axis_km": 6853.383211696195,
      "eccentricity": 9.397e-05,
      "inclination_deg": 53.1624,
      "raan_deg": 342.0919,
      "arg_perigee_deg": 103.4494,
      "mean_anomaly_deg": 256.6611,
      "mean_motion_rev_day": 15.3018957
    },
    {
      "epoch": "2026-03-30T20:39:23.799168Z",
      "apogee_km": 475.77753910520187,
      "perigee_km": 474.6836045733853,
      "latitude_deg": 4.620477095660789e-05,
      "longitude_deg": -158.12919005638923,
      "height_km": 476.0600220526035,
      "semi_major_axis_km": 6853.367571839293,
      "eccentricity": 7.981e-05,
      "inclination_deg": 53.1606,
      "raan_deg": 339.9663,
      "arg_perigee_deg": 82.7188,
      "mean_anomaly_deg": 277.3904,
      "mean_motion_rev_day": 15.30194808
    },
    {
      "epoch": "2026-03-31T09:11:49.321536Z",
      "apogee_km": 475.8121910605105,
      "perigee_km": 474.6468446178178,
      "latitude_deg": 5.983280771593819e-05,
      "longitude_deg": 10.822560731073148,
      "height_km": 476.0510640381063,
      "semi_major_axis_km": 6853.366517839164,
      "eccentricity": 8.502e-05,
      "inclination_deg": 53.159,
      "raan_deg": 337.5394,
      "arg_perigee_deg": 82.4076,
      "mean_anomaly_deg": 277.7022,
      "mean_motion_rev_day": 15.30195161
    },
    {
      "epoch": "2026-03-31T23:18:18.510912Z",
      "apogee_km": 475.9205427632669,
      "perigee_km": 474.57453803953194,
      "latitude_deg": 7.347341644823037e-06,
      "longitude_deg": 155.89170063679688,
      "height_km": 475.96205067342544,
      "semi_major_axis_km": 6853.384540401399,
      "eccentricity": 9.82e-05,
      "inclination_deg": 53.1599,
      "raan_deg": 334.8096,
      "arg_perigee_deg": 74.134,
      "mean_anomaly_deg": 285.9769,
      "mean_motion_rev_day": 15.30189125
    },
    {
      "epoch": "2026-04-01T22:49:06.147840Z",
      "apogee_km": 475.9722706630373,
      "perigee_km": 474.4672735158865,
      "latitude_deg": -1.742721408227182e-05,
      "longitude_deg": 157.6779420470508,
      "height_km": 476.0645288056744,
      "semi_major_axis_km": 6853.356772089462,
      "eccentricity": 0.0001098,
      "inclination_deg": 53.1607,
      "raan_deg": 330.26,
      "arg_perigee_deg": 85.9128,
      "mean_anomaly_deg": 274.1998,
      "mean_motion_rev_day": 15.30198425
    },
    {
      "epoch": "2026-04-02T22:19:53.491008Z",
      "apogee_km": 475.91690334816576,
      "perigee_km": 474.48825617936836,
      "latitude_deg": 1.5525730023194478e-05,
      "longitude_deg": 159.46375331426492,
      "height_km": 475.9606801186539,
      "semi_major_axis_km": 6853.339579763767,
      "eccentricity": 0.00010423,
      "inclination_deg": 53.161,
      "raan_deg": 325.7087,
      "arg_perigee_deg": 78.6631,
      "mean_anomaly_deg": 281.4487,
      "mean_motion_rev_day": 15.30204183
    },
    {
      "epoch": "2026-04-03T18:42:36.487872Z",
      "apogee_km": 475.9584307295763,
      "perigee_km": 474.51236915318805,
      "latitude_deg": -1.8020383386659696e-05,
      "longitude_deg": -150.99624507198521,
      "height_km": 475.99159412635316,
      "semi_major_axis_km": 6853.372399941381,
      "eccentricity": 0.0001055,
      "inclination_deg": 53.1611,
      "raan_deg": 321.7648,
      "arg_perigee_deg": 78.6478,
      "mean_anomaly_deg": 281.4641,
      "mean_motion_rev_day": 15.30193191
    },
    {
      "epoch": "2026-04-04T21:21:30.873888Z",
      "apogee_km": 476.10906022886957,
      "perigee_km": 474.4560154363444,
      "latitude_deg": -5.515387872713876e-05,
      "longitude_deg": 163.02550543472037,
      "height_km": 475.97907588940984,
      "semi_major_axis_km": 6853.419537832607,
      "eccentricity": 0.0001206,
      "inclination_deg": 53.1608,
      "raan_deg": 316.6076,
      "arg_perigee_deg": 75.8707,
      "mean_anomaly_deg": 284.2427,
      "mean_motion_rev_day": 15.30177404
    },
    {
      "epoch": "2026-04-05T00:29:37.101984Z",
      "apogee_km": 476.1234459186153,
      "perigee_km": 474.4192773954064,
      "latitude_deg": 5.378598212228172e-05,
      "longitude_deg": 115.26408357818671,
      "height_km": 475.9737867691142,
      "semi_major_axis_km": 6853.408361657011,
      "eccentricity": 0.00012433,
      "inclination_deg": 53.161,
      "raan_deg": 316.0008,
      "arg_perigee_deg": 76.7134,
      "mean_anomaly_deg": 283.4006,
      "mean_motion_rev_day": 15.30181147
    },
    {
      "epoch": "2026-04-05T20:52:17.975136Z",
      "apogee_km": 476.0406950072029,
      "perigee_km": 474.4493397027736,
      "latitude_deg": 4.563649505090887e-05,
      "longitude_deg": 164.81297562853447,
      "height_km": 476.08752439927247,
      "semi_major_axis_km": 6853.3820173549875,
      "eccentricity": 0.0001161,
      "inclination_deg": 53.1615,
      "raan_deg": 312.0569,
      "arg_perigee_deg": 85.9734,
      "mean_anomaly_deg": 274.14,
      "mean_motion_rev_day": 15.3018997
    },
    {
      "epoch": "2026-04-07T13:37:41.384640Z",
      "apogee_km": 476.1042134589834,
      "perigee_km": 474.3716802724157,
      "latitude_deg": 5.812162198560578e-05,
      "longitude_deg": -96.09536913691021,
      "height_km": 476.081578120472,
      "semi_major_axis_km": 6853.374946865699,
      "eccentricity": 0.0001264,
      "inclination_deg": 53.1615,
      "raan_deg": 304.1699,
      "arg_perigee_deg": 86.3859,
      "mean_anomaly_deg": 273.7287,
      "mean_motion_rev_day": 15.30192338
    },
    {
      "epoch": "2026-04-07T19:53:54.614112Z",
      "apogee_km": 476.2068068629269,
      "perigee_km": 474.30841655548284,
      "latitude_deg": -2.6822093504156968e-08,
      "longitude_deg": 168.37545020048262,
      "height_km": 476.3542998958936,
      "semi_major_axis_km": 6853.394611709205,
      "eccentricity": 0.0001385,
      "inclination_deg": 53.1625,
      "raan_deg": 302.9534,
      "arg_perigee_deg": 102.0692,
      "mean_anomaly_deg": 258.0464,
      "mean_motion_rev_day": 15.30185752
    },
    {
      "epoch": "2026-04-08T06:52:17.309280Z",
      "apogee_km": 476.17908464405446,
      "perigee_km": 474.35635312501927,
      "latitude_deg": -1.3834669548721296e-05,
      "longitude_deg": 1.2070314276439649,
      "height_km": 476.3460498566428,
      "semi_major_axis_km": 6853.404718884536,
      "eccentricity": 0.00013298,
      "inclination_deg": 53.1624,
      "raan_deg": 300.8302,
      "arg_perigee_deg": 101.3945,
      "mean_anomaly_deg": 258.7205,
      "mean_motion_rev_day": 15.30182367
    },
    {
      "epoch": "2026-04-09T18:55:29.575200Z",
      "apogee_km": 475.9773395475231,
      "perigee_km": 474.48467599543073,
      "latitude_deg": -3.756764607126145e-06,
      "longitude_deg": 171.9483656172507,
      "height_km": 476.19693435334256,
      "semi_major_axis_km": 6853.368007771476,
      "eccentricity": 0.0001089,
      "inclination_deg": 53.1623,
      "raan_deg": 293.8533,
      "arg_perigee_deg": 95.1779,
      "mean_anomaly_deg": 264.9346,
      "mean_motion_rev_day": 15.30194662
    },
    {
      "epoch": "2026-04-09T20:29:32.921664Z",
      "apogee_km": 475.9963571373546,
      "perigee_km": 474.4831315522024,
      "latitude_deg": -3.847879648516887e-06,
      "longitude_deg": 148.06704286936835,
      "height_km": 476.1819993052181,
      "semi_major_axis_km": 6853.376744344778,
      "eccentricity": 0.0001104,
      "inclination_deg": 53.1617,
      "raan_deg": 293.5503,
      "arg_perigee_deg": 93.3166,
      "mean_anomaly_deg": 266.7961,
      "mean_motion_rev_day": 15.30191736
    },
    {
      "epoch": "2026-04-11T21:05:11.974848Z",
      "apogee_km": 475.8608426221672,
      "perigee_km": 474.60804632211784,
      "latitude_deg": -2.75876356181354e-06,
      "longitude_deg": 127.75302578466285,
      "height_km": 476.1908722942165,
      "semi_major_axis_km": 6853.371444472142,
      "eccentricity": 9.14e-05,
      "inclination_deg": 53.1609,
      "raan_deg": 284.1447,
      "arg_perigee_deg": 95.2921,
      "mean_anomaly_deg": 264.8184,
      "mean_motion_rev_day": 15.30193511
    }
  ]
}